SENTINEL-6              
1 46984U 20086A   24110.59662519 -.00000032  00000+0  12479-3 0  9999
2 46984  66.0432 332.9650 0007775 271.2432  88.7693 12.80930033159329
